start=new Date('2022-11-08T00:00:00.000Z').valueOf();
sats=[{"EPOCH":"2022-11-07T10:59:16.104192","REF_FRAME":"TEME","DECAY_DATE":null,"OBJECT_TYPE":"PAYLOAD","BSTAR":"-0.00001804600000","ECCENTRICITY":"0.00015660","TLE_LINE1":"1 48432U 21040E   22311.45782528 -.00000550  00000-0 -18046-4 0  9993","RCS_SIZE":"LARGE","SEMIMAJOR_AXIS":"6925.384","MEAN_ELEMENT_THEORY":"SGP4","TLE_LINE2":"2 48432  53.0553 215.8746 0001566  74.3907 285.7255 15.06388297 83492","MEAN_ANOMALY":"285.7255","INCLINATION":"53.0553","SITE":"AFETR","MEAN_MOTION_DDOT":"0.0000000000000","OBJECT_NAME":"STARLINK-2680","CLASSIFICATION_TYPE":"U","NORAD_CAT_ID":"48432","MEAN_MOTION_DOT":"-0.00000550","PERIOD":"95.593","COUNTRY_CODE":"US","RA_OF_ASC_NODE":"215.8746","TIME_SYSTEM":"UTC","REV_AT_EPOCH":"8349","OBJECT_ID":"2021-040E","EPHEMERIS_TYPE":"0","ARG_OF_PERICENTER":"74.3907","FILE":"3648233","PERIAPSIS":"546.165","MEAN_MOTION":"15.06388297","CENTER_NAME":"EARTH","LAUNCH_DATE":"2021-05-09","APOAPSIS":"548.334","GP_ID":"217104537","ELEMENT_SET_NO":"999"},{"OBJECT_ID":"2021-040F","EPHEMERIS_TYPE":"0","COUNTRY_CODE":"US","REV_AT_EPOCH":"8346","RA_OF_ASC_NODE":"219.5201","TIME_SYSTEM":"UTC","LAUNCH_DATE":"2021-05-09","ELEMENT_SET_NO":"999","GP_ID":"217105789","APOAPSIS":"548.493","ARG_OF_PERICENTER":"68.2268","CENTER_NAME":"EARTH","MEAN_MOTION":"15.06397717","PERIAPSIS":"545.948","FILE":"3648233","TLE_LINE2":"2 48433  53.0560 219.5201 0001838  68.2268 291.8917 15.06397717 83469","INCLINATION":"53.0560","MEAN_ANOMALY":"291.8917","OBJECT_TYPE":"PAYLOAD","BSTAR":"0.00041565000000","DECAY_DATE":null,"EPOCH":"2022-11-07T17:39:20.275776","REF_FRAME":"TEME","MEAN_ELEMENT_THEORY":"SGP4","RCS_SIZE":"LARGE","TLE_LINE1":"1 48433U 21040F   22311.73565134  .00005914  00000-0  41565-3 0  9995","ECCENTRICITY":"0.00018380","SEMIMAJOR_AXIS":"6925.356","MEAN_MOTION_DDOT":"0.0000000000000","OBJECT_NAME":"STARLINK-2699","PERIOD":"95.592","MEAN_MOTION_DOT":"0.00005914","NORAD_CAT_ID":"48433","CLASSIFICATION_TYPE":"U","SITE":"AFETR"},{"ARG_OF_PERICENTER":"80.3336","FILE":"3648233","PERIAPSIS":"546.246","MEAN_MOTION":"15.06389772","CENTER_NAME":"EARTH","LAUNCH_DATE":"2021-05-09","APOAPSIS":"548.244","GP_ID":"217106040","ELEMENT_SET_NO":"999","COUNTRY_CODE":"US","TIME_SYSTEM":"UTC","RA_OF_ASC_NODE":"224.3137","REV_AT_EPOCH":"8341","OBJECT_ID":"2021-040G","EPHEMERIS_TYPE":"0","SITE":"AFETR","MEAN_MOTION_DDOT":"0.0000000000000","OBJECT_NAME":"STARLINK-2692","CLASSIFICATION_TYPE":"U","NORAD_CAT_ID":"48434","MEAN_MOTION_DOT":"0.00005425","PERIOD":"95.593","EPOCH":"2022-11-07T19:59:22.513344","REF_FRAME":"TEME","DECAY_DATE":null,"OBJECT_TYPE":"PAYLOAD","BSTAR":"0.00038293000000","ECCENTRICITY":"0.00014430","TLE_LINE1":"1 48434U 21040G   22311.83289946  .00005425  00000-0  38293-3 0  9992","RCS_SIZE":"LARGE","SEMIMAJOR_AXIS":"6925.380","MEAN_ELEMENT_THEORY":"SGP4","TLE_LINE2":"2 48434  53.0551 224.3137 0001443  80.3336 279.7816 15.06389772 83415","MEAN_ANOMALY":"279.7816","INCLINATION":"53.0551"},{"TLE_LINE2":"2 48435  53.0545 235.2722 0001837  50.1116 310.0034 15.06392270 83225","INCLINATION":"53.0545","MEAN_ANOMALY":"310.0034","OBJECT_TYPE":"PAYLOAD","BSTAR":"0.00024533000000","DECAY_DATE":null,"EPOCH":"2022-11-07T12:10:52.630176","REF_FRAME":"TEME","MEAN_ELEMENT_THEORY":"SGP4","TLE_LINE1":"1 48435U 21040H   22311.50755359  .00003374  00000-0  24533-3 0  9996","RCS_SIZE":"LARGE","SEMIMAJOR_AXIS":"6925.372","ECCENTRICITY":"0.00018370","OBJECT_NAME":"STARLINK-2633","MEAN_MOTION_DDOT":"0.0000000000000","PERIOD":"95.593","MEAN_MOTION_DOT":"0.00003374","NORAD_CAT_ID":"48435","CLASSIFICATION_TYPE":"U","SITE":"AFETR","OBJECT_ID":"2021-040H","EPHEMERIS_TYPE":"0","COUNTRY_CODE":"US","REV_AT_EPOCH":"8322","RA_OF_ASC_NODE":"235.2722","TIME_SYSTEM":"UTC","LAUNCH_DATE":"2021-05-09","ELEMENT_SET_NO":"999","GP_ID":"217104788","APOAPSIS":"548.509","ARG_OF_PERICENTER":"50.1116","CENTER_NAME":"EARTH","MEAN_MOTION":"15.06392270","PERIAPSIS":"545.965","FILE":"3648233"},{"MEAN_ANOMALY":"314.4210","INCLINATION":"53.0542","TLE_LINE2":"2 48436  53.0542 248.8187 0002006  45.6943 314.4210 15.06381551 83060","TLE_LINE1":"1 48436U 21040J   22311.82868534  .00004015  00000-0  28845-3 0  9995","RCS_SIZE":"LARGE","SEMIMAJOR_AXIS":"6925.405","ECCENTRICITY":"0.00020060","MEAN_ELEMENT_THEORY":"SGP4","REF_FRAME":"TEME","EPOCH":"2022-11-07T19:53:18.413376","DECAY_DATE":null,"BSTAR":"0.00028845000000","OBJECT_TYPE":"PAYLOAD","CLASSIFICATION_TYPE":"U","NORAD_CAT_ID":"48436","MEAN_MOTION_DOT":"0.00004015","PERIOD":"95.593","MEAN_MOTION_DDOT":"0.0000000000000","OBJECT_NAME":"STARLINK-2639","SITE":"AFETR","EPHEMERIS_TYPE":"0","OBJECT_ID":"2021-040J","TIME_SYSTEM":"UTC","RA_OF_ASC_NODE":"248.8187","REV_AT_EPOCH":"8306","COUNTRY_CODE":"US","APOAPSIS":"548.659","GP_ID":"217105038","ELEMENT_SET_NO":"999","LAUNCH_DATE":"2021-05-09","FILE":"3648233","PERIAPSIS":"545.881","MEAN_MOTION":"15.06381551","CENTER_NAME":"EARTH","ARG_OF_PERICENTER":"45.6943"},{"REV_AT_EPOCH":"8421","TIME_SYSTEM":"UTC","RA_OF_ASC_NODE":"258.5936","COUNTRY_CODE":"US","EPHEMERIS_TYPE":"0","OBJECT_ID":"2021-040K","CENTER_NAME":"EARTH","PERIAPSIS":"545.942","MEAN_MOTION":"15.06384049","FILE":"3648097","ARG_OF_PERICENTER":"38.4090","ELEMENT_SET_NO":"999","GP_ID":"217081910","APOAPSIS":"548.582","LAUNCH_DATE":"2021-05-09","MEAN_ELEMENT_THEORY":"SGP4","TLE_LINE1":"1 48437U 21040K   22311.87936370  .00003594  00000-0  26014-3 0  9992","RCS_SIZE":"LARGE","SEMIMAJOR_AXIS":"6925.397","ECCENTRICITY":"0.00019060","OBJECT_TYPE":"PAYLOAD","BSTAR":"0.00026014000000","DECAY_DATE":null,"EPOCH":"2022-11-07T21:06:17.023680","REF_FRAME":"TEME","INCLINATION":"53.0554","MEAN_ANOMALY":"321.7035","TLE_LINE2":"2 48437  53.0554 258.5936 0001906  38.4090 321.7035 15.06384049 84214","SITE":"AFETR","PERIOD":"95.593","MEAN_MOTION_DOT":"0.00003594","NORAD_CAT_ID":"48437","CLASSIFICATION_TYPE":"U","OBJECT_NAME":"STARLINK-2642","MEAN_MOTION_DDOT":"0.0000000000000"},{"INCLINATION":"53.0556","MEAN_ANOMALY":"314.7361","TLE_LINE2":"2 48438  53.0556 250.0127 0002290  45.3815 314.7361 15.06392128 83024","MEAN_ELEMENT_THEORY":"SGP4","RCS_SIZE":"LARGE","TLE_LINE1":"1 48438U 21040L   22311.55960809 -.00000145  00000-0  91920-5 0  9992","SEMIMAJOR_AXIS":"6925.373","ECCENTRICITY":"0.00022900","BSTAR":"0.00000919200000","OBJECT_TYPE":"PAYLOAD","DECAY_DATE":null,"EPOCH":"2022-11-07T13:25:50.138976","REF_FRAME":"TEME","PERIOD":"95.593","MEAN_MOTION_DOT":"-0.00000145","NORAD_CAT_ID":"48438","CLASSIFICATION_TYPE":"U","OBJECT_NAME":"STARLINK-2640","MEAN_MOTION_DDOT":"0.0000000000000","SITE":"AFETR","EPHEMERIS_TYPE":"0","OBJECT_ID":"2021-040L","REV_AT_EPOCH":"8302","TIME_SYSTEM":"UTC","RA_OF_ASC_NODE":"250.0127","COUNTRY_CODE":"US","ELEMENT_SET_NO":"999","GP_ID":"217105541","APOAPSIS":"548.824","LAUNCH_DATE":"2021-05-09","CENTER_NAME":"EARTH","PERIAPSIS":"545.652","MEAN_MOTION":"15.06392128","FILE":"3648233","ARG_OF_PERICENTER":"45.3815"},{"TLE_LINE2":"2 48439  53.0533 248.8364 0002007  53.2909 306.8264 15.06406600 83065","INCLINATION":"53.0533","MEAN_ANOMALY":"306.8264","OBJECT_TYPE":"PAYLOAD","BSTAR":"0.00056058000000","DECAY_DATE":null,"REF_FRAME":"TEME","EPOCH":"2022-11-07T19:42:41.274720","MEAN_ELEMENT_THEORY":"SGP4","RCS_SIZE":"LARGE","TLE_LINE1":"1 48439U 21040M   22311.82131105  .00008080  00000-0  56058-3 0  9998","ECCENTRICITY":"0.00020070","SEMIMAJOR_AXIS":"6925.328","MEAN_MOTION_DDOT":"0.0000000000000","OBJECT_NAME":"STARLINK-2583","PERIOD":"95.592","MEAN_MOTION_DOT":"0.00008080","CLASSIFICATION_TYPE":"U","NORAD_CAT_ID":"48439","SITE":"AFETR","OBJECT_ID":"2021-040M","EPHEMERIS_TYPE":"0","COUNTRY_CODE":"US","REV_AT_EPOCH":"8306","TIME_SYSTEM":"UTC","RA_OF_ASC_NODE":"248.8364","LAUNCH_DATE":"2021-05-09","ELEMENT_SET_NO":"999","GP_ID":"217104288","APOAPSIS":"548.583","ARG_OF_PERICENTER":"53.2909","CENTER_NAME":"EARTH","MEAN_MOTION":"15.06406600","PERIAPSIS":"545.803","FILE":"3648233"},{"COUNTRY_CODE":"US","RA_OF_ASC_NODE":"250.0464","TIME_SYSTEM":"UTC","REV_AT_EPOCH":"8302","OBJECT_ID":"2021-040N","EPHEMERIS_TYPE":"0","ARG_OF_PERICENTER":"47.5296","FILE":"3648233","PERIAPSIS":"546.052","MEAN_MOTION":"15.06394432","CENTER_NAME":"EARTH","LAUNCH_DATE":"2021-05-09","APOAPSIS":"548.409","GP_ID":"217104538","ELEMENT_SET_NO":"999","REF_FRAME":"TEME","EPOCH":"2022-11-07T13:15:12.914784","DECAY_DATE":null,"OBJECT_TYPE":"PAYLOAD","BSTAR":"0.00023643000000","TLE_LINE1":"1 48440U 21040N   22311.55223281  .00003241  00000-0  23643-3 0  9995","ECCENTRICITY":"0.00017020","RCS_SIZE":"LARGE","SEMIMAJOR_AXIS":"6925.366","MEAN_ELEMENT_THEORY":"SGP4","TLE_LINE2":"2 48440  53.0554 250.0464 0001702  47.5296 312.5837 15.06394432 83027","MEAN_ANOMALY":"312.5837","INCLINATION":"53.0554","SITE":"AFETR","MEAN_MOTION_DDOT":"0.0000000000000","OBJECT_NAME":"STARLINK-2682","CLASSIFICATION_TYPE":"U","NORAD_CAT_ID":"48440","MEAN_MOTION_DOT":"0.00003241","PERIOD":"95.592"},{"PERIOD":"95.593","MEAN_MOTION_DOT":"0.00001706","CLASSIFICATION_TYPE":"U","NORAD_CAT_ID":"48441","OBJECT_NAME":"STARLINK-2702","MEAN_MOTION_DDOT":"0.0000000000000","SITE":"AFETR","INCLINATION":"53.0531","MEAN_ANOMALY":"309.2172","TLE_LINE2":"2 48441  53.0531 248.8608 0001829  50.8979 309.2172 15.06388790 83062","MEAN_ELEMENT_THEORY":"SGP4","ECCENTRICITY":"0.00018290","TLE_LINE1":"1 48441U 21040P   22311.81393670  .00001706  00000-0  13347-3 0  9999","RCS_SIZE":"LARGE","SEMIMAJOR_AXIS":"6925.383","BSTAR":"0.00013347000000","OBJECT_TYPE":"PAYLOAD","DECAY_DATE":null,"REF_FRAME":"TEME","EPOCH":"2022-11-07T19:32:04.130880","ELEMENT_SET_NO":"999","GP_ID":"217105790","APOAPSIS":"548.515","LAUNCH_DATE":"2021-05-09","CENTER_NAME":"EARTH","MEAN_MOTION":"15.06388790","PERIAPSIS":"545.981","FILE":"3648233","ARG_OF_PERICENTER":"50.8979","EPHEMERIS_TYPE":"0","OBJECT_ID":"2021-040P","REV_AT_EPOCH":"8306","TIME_SYSTEM":"UTC","RA_OF_ASC_NODE":"248.8608","COUNTRY_CODE":"US"}];
